IRIDIUM 63              
1 25286U 98021B   25169.50297920  .00000338  00000+0  10857-3 0  9997
2 25286  86.3976  81.5810 0002059  83.7529 276.3902 14.36547903424031
IRIDIUM 69              
1 25319U 98026A   25169.51158582  .00000413  00000+0  12254-3 0  9997
2 25319  86.3970  94.8641 0003912  51.5254 308.6296 14.40970643423252
IRIDIUM 71              
1 25320U 98026B   25169.51824324  .00000384  00000+0  11281-3 0  9999
2 25320  86.3970  89.5513 0004378  83.4617 276.7081 14.41160059423785
IRIDIUM 73              
1 25344U 98032C   25169.37150676  .00000449  00000+0  10680-3 0  9992
2 25344  86.4413  46.3145 0002284  69.3852 290.7598 14.51717710430739
IRIDIUM 82              
1 25467U 98051A   25169.46412250  .00018237  00000+0  52280-3 0  9994
2 25467  86.3664 109.1105 0081481 292.5722  66.6920 15.32423595424151
